STARLETTE               
1 07646U 75010A   22350.79773257 -.00000139  00000+0  36260-5 0  9990
2 07646  49.8233 110.4971 0205769 159.9116 201.0025 13.82315231417706
LAGEOS 1                
1 08820U 76039A   22351.02889206 -.00000001  00000+0  00000+0 0  9991
2 08820 109.8488 101.5454 0045141 216.1677 261.9898  6.38664989831928
AJISAI (EGS)            
1 16908U 86061A   22350.89033476 -.00000094  00000+0  21833-4 0  9991
2 16908  50.0081 118.0666 0011458 165.7663 302.1958 12.44498371321211
COSMOS 1989 (ETALON 1)  
1 19751U 89001C   22350.82434681  .00000050  00000+0  00000+0 0  9992
2 19751  64.3531 116.1112 0023930 213.7510 146.0270  2.13156213264125
COSMOS 2024 (ETALON 2)  
1 20026U 89039C   22350.56332431 -.00000030  00000+0  00000+0 0  9990
2 20026  65.5136 354.2103 0018671 218.7342 240.9697  2.13204353261241
LAGEOS 2                
1 22195U 92070B   22350.60243736 -.00000009  00000+0  00000+0 0  9998
2 22195  52.6773 354.6947 0138270 348.4181 190.3932  6.47293501712643
STELLA                  
1 22824U 93061B   22350.87630965 -.00000031  00000+0  63359-5 0  9998
2 22824  98.9504  16.2857 0006252 357.2308 130.1106 14.27395860522407
LARES                   
1 38077U 12006A   22350.62799434 -.00000061  00000+0 -13625-3 0  9998
2 38077  69.4961 316.1398 0009846 182.7898 177.3075 12.54931051496766
